STARLINK-36502          
1 67627U 26020L   26060.00002314 -.00054150  00000+0 -33124-3 0  9994
2 67627  42.9998 194.4118 0001594 264.9884   1.2026 15.76394840  5990
STARLINK-36532          
1 67628U 26020M   26060.00002314 -.00101219  00000+0 -62470-3 0  9990
2 67628  43.0002 194.3804 0001670 266.8782  11.7526 15.76413130  5998
STARLINK-36367          
1 67629U 26020N   26059.65828021  .00409456  00000+0  23886-2 0  9990
2 67629  42.9999 196.8000 0000881 231.9224 128.1567 15.76452883  4663
STARLINK-36416          
1 67630U 26020P   26059.73696560  .00196691  00000+0  11795-2 0  9992
2 67630  42.9995 196.5391 0001895 286.6847  73.3814 15.76434535  4676
STARLINK-36527          
1 67631U 26020Q   26060.00002314 -.00081146  00000+0 -49936-3 0  9992
2 67631  42.9999 194.2870 0001699 275.2892  40.6704 15.76398284  5995
STARLINK-36633          
1 67632U 26020R   26059.76967538  .00311547  00000+0  18409-2 0  9991
2 67632  42.9997 195.9054 0001342 290.4951  69.5774 15.76437727  4684
STARLINK-36637          
1 67633U 26020S   26059.73477549  .00161491  00000+0  97286-3 0  9999
2 67633  43.0000 196.5218 0002236 282.7107  77.3513 15.76436160  4678
STARLINK-36617          
1 67634U 26020T   26059.00001157  .00008167  00000+0  53096-4 0  9990
2 67634  42.9994 200.3960 0001790 260.0392 121.5727 15.76366533  5830
STARLINK-36627          
1 67635U 26020U   26059.41140805  .00326161  00000+0  19229-2 0  9995
2 67635  42.9960 198.3929 0000922 238.8339 121.2440 15.76446717  4623
STARLINK-36624          
1 67636U 26020V   26059.77186511  .00215686  00000+0  12908-2 0  9995
2 67636  42.9984 195.9234 0001937 291.2444  68.8219 15.76423043  4682
STARLINK-36610          
1 67637U 26020W   26059.41360056  .00394258  00000+0  22898-2 0  9997
2 67637  42.9981 198.4097 0001259 239.1173 120.9573 15.76596394  4629
STARLINK-36599          
1 67638U 26020X   26059.43535036  .00478843  00000+0  27424-2 0  9995
2 67638  42.9990 197.6876 0002829 236.7233 123.3366 15.76680362  4637
